{"fetched_at":"2026-03-29T16:36:15Z","count":15609,"tles":[{"name":"STARLINK-36113","line1":"1 66982U 25288Z   26087.86099004  .00022787  00000+0  83380-3 0  9995","line2":"2 66982  43.0003 274.8072 0001907 261.8259  98.2376 15.27628615 18224","category":"Starlink"}]}