{
  "norad_id": 66982,
  "name": "STARLINK-36113",
  "history": [
    {
      "epoch": "2026-03-28T20:39:49.539456",
      "apogee_km": 484.2123411923603,
      "perigee_km": 481.5947170096988,
      "latitude_deg": 36.90782922994963,
      "longitude_deg": -119.1449561601039,
      "semi_major_axis_km": 6861.040529101029,
      "eccentricity": 0.00019076,
      "inclination_deg": 43.0003,
      "raan_deg": 274.8072,
      "arg_perigee_deg": 261.8259,
      "mean_anomaly_deg": 98.2376,
      "mean_motion_rev_day": 15.27628615
    }
  ]
}